[{"OBJECT_NAME":"STARLINK-31483","OBJECT_ID":"2024-064P","EPOCH":"2026-03-09T22:42:33.317280","MEAN_MOTION":15.27563004,"ECCENTRICITY":0.00013862,"INCLINATION":43.0055,"RA_OF_ASC_NODE":54.8401,"ARG_OF_PERICENTER":263.1784,"MEAN_ANOMALY":96.891,"EPHEMERIS_TYPE":0,"CLASSIFICATION_TYPE":"U","NORAD_CAT_ID":59411,"ELEMENT_SET_NO":999,"REV_AT_EPOCH":10926,"BSTAR":-9.6297293e-5,"MEAN_MOTION_DOT":-2.91e-5,"MEAN_MOTION_DDOT":0},{"OBJECT_NAME":"HYPERFIELD-1A","OBJECT_ID":"2024-149CY","EPOCH":"2026-03-09T18:21:25.814304","MEAN_MOTION":15.29681349,"ECCENTRICITY":0.00038648,"INCLINATION":97.3842,"RA_OF_ASC_NODE":149.5066,"ARG_OF_PERICENTER":313.7844,"MEAN_ANOMALY":46.3076,"EPHEMERIS_TYPE":0,"CLASSIFICATION_TYPE":"U","NORAD_CAT_ID":60562,"ELEMENT_SET_NO":999,"REV_AT_EPOCH":8683,"BSTAR":0.00030052114,"MEAN_MOTION_DOT":8.569e-5,"MEAN_MOTION_DDOT":0}]
